GORIZONT 1 [-]          
1 11158U 78118A   22257.29343153 -.00000120  00000+0  00000+0 0  9991
2 11158  11.0811 201.9245 3460125 286.0523  39.0627  1.00307227109188
GORIZONT 2 [-]          
1 11440U 79062A   22258.20360177  .00000026  00000+0  00000+0 0  9995
2 11440   9.0817 300.7994 0003374 253.8381 293.3675  1.00283463124274
GORIZONT 3 [-]          
1 11648U 79105A   22258.13218470  .00000005  00000+0  00000+0 0  9990
2 11648   9.2420 302.2399 0014247 213.9938 307.2347  1.00341824108716
GORIZONT 4 [-]          
1 11841U 80049A   22258.58178265 -.00000255  00000+0  00000+0 0  9998
2 11841  10.3927 308.0301 0001028 212.3998 197.9563  0.98632027220000
GORIZONT 5 [-]          
1 13092U 82020A   22258.42683118 -.00000094  00000+0  00000+0 0  9991
2 13092  11.3873 313.3250 0034603 212.6537 185.1645  0.98532684108092
GORIZONT 6 [-]          
1 13624U 82103A   22258.47472531  .00000085  00000+0  00000+0 0  9993
2 13624  10.3091 313.3648 0002857 192.0587 209.0628  1.00287538107205
GORIZONT 7 [-]          
1 14160U 83066A   22258.57121578 -.00000224  00000+0  00000+0 0  9997
2 14160  11.9730 322.7165 0008494 313.6393  68.5316  0.98349840141273
GORIZONT 8 [-]          
1 14532U 83118A   22257.89894942 -.00000107  00000+0  00000+0 0  9994
2 14532  12.1486 324.5758 0030711 150.7212 230.0609  0.98270257107067
GORIZONT 9 [-]          
1 14940U 84041A   22258.60004398 -.00000168  00000+0  00000+0 0  9998
2 14940  11.3390 322.6044 0004999 206.1269 124.5472  1.00225423108198
GORIZONT 10 [-]         
1 15144U 84078A   22258.42553984  .00000110  00000+0  00000+0 0  9991
2 15144  11.4346 323.6329 0001272 152.7480 233.6989  1.00216671140833
GORIZONT 11 [-]         
1 15484U 85007A   22258.60860594 -.00000294  00000+0  00000+0 0  9993
2 15484  11.6162 325.6095 0004842 155.6762 185.9232  1.00387371138889
GORIZONT 12 [-]         
1 16769U 86044A   22257.89234198  .00000009  00000+0  00000+0 0  9990
2 16769  12.2370 330.9864 0002092 196.2989 210.9971  1.00201753133517
GORIZONT 13 [-]         
1 17083U 86090A   22257.85653523 -.00000071  00000+0  00000+0 0  9994
2 17083  14.1150 338.1578 0012106 341.0627  60.2698  0.96725353105389
GORIZONT 14 [-]         
1 17969U 87040A   22258.41569701 -.00000083  00000+0  00000+0 0  9993
2 17969  13.0570 329.5560 0032558 174.2665 222.3004  0.97658531106479
GORIZONT 15 [-]         
1 19017U 88028A   22257.91646612 -.00000163  00000+0  00000+0 0  9996
2 19017  14.4034 340.9865 0038257 157.2497 196.6171  0.97829678106083
GORIZONT 16 [-]         
1 19397U 88071A   22258.24353916 -.00000109  00000+0  00000+0 0  9994
2 19397  13.2547 339.6649 0014017  68.5329 294.6955  0.99966113124538
GORIZONT 17 [-]         
1 19765U 89004A   22257.89429425  .00000044  00000+0  00000+0 0  9996
2 19765  13.8025 343.0130 0024345 133.9137 267.9728  0.99063298121997
GORIZONT 18 [-]         
1 20107U 89052A   22258.50646481 -.00000257  00000+0  00000+0 0  9990
2 20107  13.8457 344.2677 0032820 318.6634 347.6655  0.99400476120782
GORIZONT 19 [-]         
1 20263U 89081A   22257.69899655  .00000024  00000+0  00000+0 0  9998
2 20263  13.5765 343.4622 0004288 196.1242 123.0003  1.00345467 33581
GORIZONT 20 [-]         
1 20659U 90054A   22258.54868197 -.00000302  00000+0  00000+0 0  9991
2 20659  14.0126 346.2803 0007322 164.2981 138.2621  1.00265251117946
GORIZONT 21 [-]         
1 20923U 90094A   22258.24685278 -.00000256  00000+0  00000+0 0  9991
2 20923  14.0264 347.0533 0005408 193.4188 180.2359  1.00380733116709
GORIZONT 22 [-]         
1 20953U 90102A   22258.51989752 -.00000295  00000+0  00000+0 0  9991
2 20953  13.9849 347.4185 0002495  40.4795 294.7231  1.00272550116622
GORIZONT 23 [-]         
1 21533U 91046A   22258.40672819  .00000028  00000+0  00000+0 0  9998
2 21533  14.7470 351.5677 0002303 308.4124  78.2704  0.98906946 33132
GORIZONT 24 [-]         
1 21759U 91074A   22258.28869080 -.00000093  00000+0  00000+0 0  9996
2 21759  14.9022 353.4723 0017776 221.8391 169.3134  0.98442833111466
GORIZONT 25 [-]         
1 21922U 92017A   22253.12277387 -.00000160  00000+0  00000+0 0  9992
2 21922  14.4479 352.8437 0029468  84.0474 310.1613  0.99858767111204
GORIZONT 26 [-]         
1 22041U 92043A   22258.60890421 -.00000276  00000+0  00000+0 0  9990
2 22041  14.6152 354.8023 0030634 232.5771 147.5572  0.99247357109870
GORIZONT 27 [-]         
1 22245U 92082A   22257.89418618 -.00000035  00000+0  00000+0 0  9996
2 22245  14.5321 354.4022 0011175  16.1760  14.1430  1.00138823113384
GORIZONT 28 [-]         
1 22880U 93069A   22258.52480279 -.00000087  00000+0  00000+0 0  9997
2 22880  14.6738 358.2578 0035645 132.8853 233.2588  0.99658244105477
GORIZONT 29 [-]         
1 22907U 93072A   22258.06090068 -.00000108  00000+0  00000+0 0  9997
2 22907  14.5859 357.7231 0008592 351.3141  20.0016  1.00163010105449
GORIZONT 30 [-]         
1 23108U 94030A   22258.55188340 -.00000268  00000+0  00000+0 0  9998
2 23108  14.5984 358.6249 0002938 151.4894 187.8930  1.00277411103719
GORIZONT 31 [-]         
1 23775U 96005A   22258.51209692  .00000087  00000+0  00000+0 0  9990
2 23775  14.5114   4.8383 0018709 198.6485 193.6316  0.99888898 97365
GORIZONT 32 [-]         
1 23880U 96034A   22258.49823613  .00000097  00000+0  00000+0 0  9992
2 23880  14.4604   5.3551 0007935   1.1253  14.7904  1.00173108 96301
GORIZONT 33 [-]         
1 26372U 00029A   22258.18555130 -.00000236  00000+0  00000+0 0  9998
2 26372  13.1766  16.5428 0004689 101.7478 272.8897  1.00312053 81688
